STARLINK-3577           
1 51884U 22022AJ  23235.42903489  .00000587  00000+0  54964-4 0  9999
2 51884  53.2168 210.7294 0001313  98.1700 261.9441 15.08845479 83044
STARLINK-3584           
1 51885U 22022AK  23235.08312082 -.00000140  00000+0  92810-5 0  9994
2 51885  53.2176 212.2846 0001623 103.9852 256.1321 15.08837870 82904
STARLINK-3565           
1 51886U 22022AL  23235.42167713  .00000399  00000+0  43158-4 0  9997
2 51886  53.2158 210.7637 0001354  93.1654 266.9493 15.08845759 82967
STARLINK-3551           
1 51887U 22022AM  23235.07944080  .00000516  00000+0  50481-4 0  9997
2 51887  53.2160 212.3036 0001337  89.0888 271.0257 15.08839431 82905
STARLINK-3536           
1 51888U 22022AN  23235.35175730  .00000219  00000+0  31847-4 0  9992
2 51888  53.2162 211.0740 0001296 104.6891 255.4245 15.08840175 82953
STARLINK-3547           
1 51889U 22022AP  23235.33336026  .00000627  00000+0  57457-4 0  9996
2 51889  53.2162 211.1626 0001182  91.5413 268.5715 15.08842616 82944
STARLINK-3519           
1 51890U 22022AQ  23235.45116804  .00000614  00000+0  55538-4 0  9995
2 51890  53.2171 209.7288 0001274  87.2856 272.8283 15.09652857 82976
STARLINK-3549           
1 51891U 22022AR  23235.32968527  .00001385  00000+0  10509-3 0  9993
2 51891  53.2159 211.1782 0001502  87.8287 272.2877 15.08840951 82995
STARLINK-3587           
1 51892U 22022AS  23235.40327519  .00000987  00000+0  80097-4 0  9990
2 51892  53.2164 210.8482 0001496  86.7178 273.3985 15.08847089 82951
STARLINK-3579           
1 51893U 22022AT  23234.92488312  .00000545  00000+0  52319-4 0  9992
2 51893  53.2156 212.9979 0001293  87.9868 272.1272 15.08836384 82942
STARLINK-3595           
1 51894U 22022AU  23234.92855651 -.00001161  00000+0 -54865-4 0  9992
2 51894  53.2166 212.9814 0001432  88.8059 271.3097 15.08840435 82947
STARLINK-3594           
1 51895U 22022AV  23235.45112027  .00000077  00000+0  22935-4 0  9991
2 51895  53.2165 210.6346 0001401  88.6788 271.4364 15.08843376 82962
STARLINK-3593           
1 51896U 22022AW  23235.45207584  .00000583  00000+0  54692-4 0  9992
2 51896  53.2163 210.6305 0001319  89.9260 270.1884 15.08841607 83018
STARLINK-3598           
1 51897U 22022AX  23235.31495791 -.00003336  00000+0 -19161-3 0  9999
2 51897  53.2157 211.2464 0001314  92.9101 267.2042 15.08842368 82947
STARLINK-3597           
1 51898U 22022AY  23235.04632084 -.00000030  00000+0  16178-4 0  9991
2 51898  53.2165 212.4516 0001303  94.2431 265.8710 15.08841119 82957
2022-023A               
1 51946U 22023A   23234.48308412 -.00000329  00000+0 -35132-5 0  9992
2 51946  63.4488 170.6578 0075554 327.2579  32.3862 15.18290081 81373
2022-023B               
1 51947U 22023B   23235.46825496  .00027134  00000+0  12469-2 0  9994
2 51947  63.4428 167.0715 0069676 333.3417  26.4118 15.18124383 81524
2022-023C               
1 51948U 22023C   23235.47499636  .00024296  00000+0  11233-2 0  9993
2 51948  63.4490 167.0085 0065814 336.2167  23.5907 15.18198376 81525
2022-023D               
1 51949U 22023D   23235.37521275  .00003054  00000+0  15138-3 0  9996
2 51949  63.4608 167.7595 0067594 336.6740 180.6892 15.18100636 81506
2022-023E               
1 51950U 22023E   23235.10305438  .00020135  00000+0  95972-3 0  9993
2 51950  63.4631 168.6366 0066788 345.1958 105.2822 15.17186785 81469
2022-023F               
1 51951U 22023F   23235.48360110  .00024456  00000+0  10939-2 0  9992
2 51951  63.4704 167.3116 0068431 344.0283  15.8671 15.19160718 81521
2022-023G               
1 51952U 22023G   23235.31503499  .00030381  00000+0  66743-3 0  9993
2 51952  63.4330 137.8161 0076733 347.8763  12.0510 15.40771931 82056
NOOR-2                  
1 51954U 22024A   23235.31921376  .00029624  00000+0  77926-3 0  9997
2 51954  58.2799 144.2228 0010404 353.4207   6.6722 15.38382108 81429
STARLINK-3700           
1 51956U 22025A   23235.49129687 -.00000104  00000+0  11685-4 0  9998
2 51956  53.0525 239.4339 0001018  72.6581 287.4520 15.08037284 81993
STARLINK-3694           
1 51957U 22025B   23234.18184091  .00000225  00000+0  35210-4 0  9997
2 51957  53.0514 249.2083 0001099  89.1109 271.0005 15.04768233 81768
STARLINK-3692           
1 51958U 22025C   23235.48748252  .00000260  00000+0  35089-4 0  9990
2 51958  53.0519 239.4539 0001313  82.8816 277.2323 15.08034375 81998
STARLINK-3704           
1 51959U 22025D   23234.18966101  .00000880  00000+0  81138-4 0  9996
2 51959  53.0521 249.1913 0001456  88.0706 272.0449 15.04766337 81741
STARLINK-3691           
1 51960U 22025E   23235.44368805  .00000368  00000+0  45277-4 0  9990
2 51960  53.0528 243.5718 0001330  99.3712 260.7426 15.04764794 81939
STARLINK-3689           
1 51961U 22025F   23234.02720146  .00000832  00000+0  71763-4 0  9999
2 51961  53.0519 245.9939 0001180  91.9601 268.1524 15.08028982 81790
STARLINK-3697           
1 51962U 22025G   23235.39874782  .00000193  00000+0  30753-4 0  9991
2 51962  53.0516 239.7715 0001250  90.1914 269.9218 15.08029395 82000
STARLINK-3675           
1 51963U 22025H   23235.41449681  .00001135  00000+0  91248-4 0  9994
2 51963  53.0517 239.7685 0001372  81.4670 278.6475 15.08037167 81989
STARLINK-3690           
1 51964U 22025J   23234.52892516  .00000812  00000+0  70534-4 0  9991
2 51964  53.0528 243.7155 0001364  98.7568 261.3576 15.08029352 81851
STARLINK-3696           
1 51965U 22025K   23234.44437374  .00000754  00000+0  72272-4 0  9996
2 51965  53.0514 248.0501 0001026  84.8488 275.2617 15.04768997 81785
STARLINK-3699           
1 51966U 22025L   23234.18623436  .00001050  00000+0  89412-4 0  9998
2 51966  53.0522 248.0163 0001308  97.9811 262.1326 15.06395841 81763
STARLINK-3681           
1 51968U 22025N   23235.37977560  .00000413  00000+0  44881-4 0  9995
2 51968  53.0528 239.8779 0001550  98.2937 261.8229 15.08030272 81993
STARLINK-3680           
1 51969U 22025P   23235.01650510 -.00000561  00000+0 -17682-4 0  9995
2 51969  53.0526 241.0510 0001498  96.4898 263.6262 15.08027431 81942
STARLINK-3677           
1 51970U 22025Q   23235.44314934  .00000304  00000+0  39327-4 0  9994
2 51970  53.0531 242.4504 0001312  85.6858 274.4281 15.06396795 81951
STARLINK-3669           
1 51971U 22025R   23234.26075252  .00000251  00000+0  34496-4 0  9994
2 51971  53.0524 244.9106 0001086  89.4056 270.7058 15.08025179 81834
STARLINK-3671           
1 51972U 22025S   23235.03400684 -.00000191  00000+0  60707-5 0  9991
2 51972  53.0528 244.2671 0001205  95.2661 264.8465 15.06395381 81906
STARLINK-3679           
1 51973U 22025T   23234.17886332  .00001092  00000+0  92214-4 0  9991
2 51973  53.0523 248.0489 0001101  87.2876 272.8239 15.06398266 81762
STARLINK-3672           
1 51974U 22025U   23235.03032064 -.00000140  00000+0  94949-5 0  9995
2 51974  53.0524 244.2851 0001556  95.2821 264.8345 15.06397854 81882
STARLINK-3674           
1 51975U 22025V   23235.01058335 -.00000902  00000+0 -41663-4 0  9994
2 51975  53.0530 239.9326 0001375  86.9200 273.1947 15.06390807 81977
STARLINK-3663           
1 51976U 22025W   23234.46901031  .00011646  00000+0  72937-3 0  9995
2 51976  53.2150 254.9716 0002737  42.0154 318.1048 15.09794904 81748
STARLINK-3660           
1 51977U 22025X   23235.40239349  .00000487  00000+0  48645-4 0  9998
2 51977  53.2139 230.8617 0001004  53.6210 306.4874 15.08851762 82132
STARLINK-3666           
1 51978U 22025Y   23234.06840048  .00000370  00000+0  41359-4 0  9990
2 51978  53.2158 256.8642 0001112  85.2949 274.8170 15.08837780 81657
STARLINK-3656           
1 51979U 22025Z   23235.47319761  .00000360  00000+0  40733-4 0  9994
2 51979  53.2165 250.5369 0001443  86.6849 273.4308 15.08843825 81895
STARLINK-3649           
1 51980U 22025AA  23235.45111607  .00001616  00000+0  11958-3 0  9994
2 51980  53.2147 250.6323 0001263  86.9362 273.1774 15.08847567 81869
STARLINK-3635           
1 51981U 22025AB  23234.07480113  .00000445  00000+0  46065-4 0  9990
2 51981  53.2153 256.8121 0001202  88.0879 272.0250 15.08835871 81660
STARLINK-3650           
1 51982U 22025AC  23235.44743593  .00001186  00000+0  92576-4 0  9998
2 51982  53.2158 250.6494 0001209  80.2442 279.8687 15.08846446 81870
STARLINK-3655           
1 51983U 22025AD  23235.46215735  .00001166  00000+0  91330-4 0  9998
2 51983  53.2151 250.5867 0001213  88.3809 271.7322 15.08845711 81891
STARLINK-3664           
1 51984U 22025AE  23235.42536322  .00000508  00000+0  49970-4 0  9995
2 51984  53.2156 250.7522 0001222  89.6965 270.4167 15.08840427 81874
STARLINK-3651           
1 51985U 22025AF  23234.46215688  .00000589  00000+0  55086-4 0  9992
2 51985  53.2160 255.0846 0001339  85.0218 275.0927 15.08843221 81710
STARLINK-3645           
1 51986U 22025AG  23235.33701797  .00000200  00000+0  30639-4 0  9998
2 51986  53.2164 250.9949 0001212  85.5603 274.5527 15.08843398 81856
STARLINK-3644           
1 51987U 22025AH  23235.03527596 -.00001686  00000+0 -87872-4 0  9991
2 51987  53.2153 252.5006 0001169  93.2913 266.8213 15.08834999 81806
STARLINK-3640           
1 51988U 22025AJ  23235.41431914  .00000304  00000+0  37164-4 0  9995
2 51988  53.2161 250.8002 0001312  91.7128 268.4014 15.08839869 81880
STARLINK-3642           
1 51989U 22025AK  23235.36280333 -.00000196  00000+0  57858-5 0  9990
2 51989  53.2160 251.0332 0001238 101.3162 258.7969 15.08837484 81862
STARLINK-3657           
1 51990U 22025AL  23235.13279870 -.00000103  00000+0  11594-4 0  9995
2 51990  53.2155 232.0613 0001319  87.1404 272.9739 15.08842676 82109
STARLINK-3652           
1 51991U 22025AM  23235.48792137  .00000819  00000+0  69516-4 0  9990
2 51991  53.2164 250.4697 0001242  92.5986 267.5148 15.08840542 81873
STARLINK-3643           
1 51992U 22025AN  23233.33327892  .00000400  00000+0  43205-4 0  9998
2 51992  53.2157 240.1416 0001332  96.3763 263.7381 15.08839480 81850
